{
  "type": "FeatureCollection",
  "features": [
    {
      "type": "Feature",
      "properties": {
        "norad_id": 37846,
        "name": "GSAT0101 (GALILEO-PFM)",
        "group": "gnss",
        "lat": -27.951389592990097,
        "lon": -33.6566740477465,
        "alt_km": 23216.17327495097,
        "timestamp": "2025-12-25T03:55:56.598811+00:00",
        "meta_object_name": "GSAT0101 (GALILEO-PFM)",
        "meta_object_id": "2011-060A",
        "meta_epoch": "2025-12-22T06:52:10.962336",
        "meta_mean_motion": 1.70475741,
        "meta_eccentricity": 0.00032123,
        "meta_inclination": 57.0506,
        "meta_ra_of_asc_node": 346.5611,
        "meta_arg_of_pericenter": 320.0005,
        "meta_mean_anomaly": 39.9838,
        "meta_ephemeris_type": 0,
        "meta_classification_type": "U",
        "meta_norad_cat_id": 37846,
        "meta_element_set_no": 999,
        "meta_rev_at_epoch": 8810,
        "meta_bstar": 0,
        "meta_mean_motion_dot": -6.5e-07,
        "meta_mean_motion_ddot": 0,
        "tle_line1": "1 37846U 11060A   25356.28623799 -.00000065  00000+0  00000+0 0  9993",
        "tle_line2": "2 37846  57.0506 346.5611 0003212 320.0005  39.9838  1.70475741 88100"
      },
      "geometry": {
        "type": "Point",
        "coordinates": [
          -33.6566740477465,
          -27.951389592990097
        ]
      }
    },
    {
      "type": "Feature",
      "properties": {
        "norad_id": 37847,
        "name": "GSAT0102 (GALILEO-FM2)",
        "group": "gnss",
        "lat": 9.675726298297713,
        "lon": -7.1797381697925005,
        "alt_km": 23213.01301536347,
        "timestamp": "2025-12-25T03:55:56.598823+00:00",
        "meta_object_name": "GSAT0102 (GALILEO-FM2)",
        "meta_object_id": "2011-060B",
        "meta_epoch": "2025-12-22T11:58:40.586304",
        "meta_mean_motion": 1.70475957,
        "meta_eccentricity": 0.00051595,
        "meta_inclination": 57.0512,
        "meta_ra_of_asc_node": 346.5558,
        "meta_arg_of_pericenter": 313.0615,
        "meta_mean_anomaly": 223.0229,
        "meta_ephemeris_type": 0,
        "meta_classification_type": "U",
        "meta_norad_cat_id": 37847,
        "meta_element_set_no": 999,
        "meta_rev_at_epoch": 8811,
        "meta_bstar": 0,
        "meta_mean_motion_dot": -6.5e-07,
        "meta_mean_motion_ddot": 0,
        "tle_line1": "1 37847U 11060B   25356.49908086 -.00000065  00000+0  00000+0 0  9992",
        "tle_line2": "2 37847  57.0512 346.5558 0005159 313.0615 223.0229  1.70475957 88119"
      },
      "geometry": {
        "type": "Point",
        "coordinates": [
          -7.1797381697925005,
          9.675726298297713
        ]
      }
    },
    {
      "type": "Feature",
      "properties": {
        "norad_id": 37867,
        "name": "COSMOS 2476 (744)",
        "group": "gnss",
        "lat": -34.90816302231299,
        "lon": -82.41375216710908,
        "alt_km": 19074.189176499574,
        "timestamp": "2025-12-25T03:55:56.598843+00:00",
        "meta_object_name": "COSMOS 2476 (744)",
        "meta_object_id": "2011-064A",
        "meta_epoch": "2025-12-23T12:51:54.046080",
        "meta_mean_motion": 2.13103692,
        "meta_eccentricity": 0.00245495,
        "meta_inclination": 65.1675,
        "meta_ra_of_asc_node": 78.8064,
        "meta_arg_of_pericenter": 235.5256,
        "meta_mean_anomaly": 174.828,
        "meta_ephemeris_type": 0,
        "meta_classification_type": "U",
        "meta_norad_cat_id": 37867,
        "meta_element_set_no": 999,
        "meta_rev_at_epoch": 11002,
        "meta_bstar": 0,
        "meta_mean_motion_dot": 1e-08,
        "meta_mean_motion_ddot": 0,
        "tle_line1": "1 37867U 11064A   25357.53604220  .00000001  00000+0  00000+0 0  9996",
        "tle_line2": "2 37867  65.1675  78.8064 0024549 235.5256 174.8280  2.13103692110029"
      },
      "geometry": {
        "type": "Point",
        "coordinates": [
          -82.41375216710908,
          -34.90816302231299
        ]
      }
    },
    {
      "type": "Feature",
      "properties": {
        "norad_id": 37868,
        "name": "COSMOS 2477 (745)",
        "group": "gnss",
        "lat": 35.76049698014269,
        "lon": 98.28442385535995,
        "alt_km": 19178.805271520607,
        "timestamp": "2025-12-25T03:55:56.598856+00:00",
        "meta_object_name": "COSMOS 2477 (745)",
        "meta_object_id": "2011-064B",
        "meta_epoch": "2025-12-24T15:22:57.950400",
        "meta_mean_motion": 2.13103036,
        "meta_eccentricity": 0.0021572,
        "meta_inclination": 65.1748,
        "meta_ra_of_asc_node": 78.8466,
        "meta_arg_of_pericenter": 235.4688,
        "meta_mean_anomaly": 123.4303,
        "meta_ephemeris_type": 0,
        "meta_classification_type": "U",
        "meta_norad_cat_id": 37868,
        "meta_element_set_no": 999,
        "meta_rev_at_epoch": 11003,
        "meta_bstar": 0,
        "meta_mean_motion_dot": 1e-08,
        "meta_mean_motion_ddot": 0,
        "tle_line1": "1 37868U 11064B   25358.64094850  .00000001  00000+0  00000+0 0  9992",
        "tle_line2": "2 37868  65.1748  78.8466 0021572 235.4688 123.4303  2.13103036110037"
      },
      "geometry": {
        "type": "Point",
        "coordinates": [
          98.28442385535995,
          35.76049698014269
        ]
      }
    },
    {
      "type": "Feature",
      "properties": {
        "norad_id": 37869,
        "name": "COSMOS 2475 (743)",
        "group": "gnss",
        "lat": -3.4656236733269674,
        "lon": 77.25823844398002,
        "alt_km": 19150.798605578526,
        "timestamp": "2025-12-25T03:55:56.598868+00:00",
        "meta_object_name": "COSMOS 2475 (743)",
        "meta_object_id": "2011-064C",
        "meta_epoch": "2025-12-24T16:55:12.459648",
        "meta_mean_motion": 2.13101671,
        "meta_eccentricity": 0.0026769,
        "meta_inclination": 65.1816,
        "meta_ra_of_asc_node": 78.8646,
        "meta_arg_of_pericenter": 249.2065,
        "meta_mean_anomaly": 114.7226,
        "meta_ephemeris_type": 0,
        "meta_classification_type": "U",
        "meta_norad_cat_id": 37869,
        "meta_element_set_no": 999,
        "meta_rev_at_epoch": 11005,
        "meta_bstar": 0,
        "meta_mean_motion_dot": 1e-08,
        "meta_mean_motion_ddot": 0,
        "tle_line1": "1 37869U 11064C   25358.70500532  .00000001  00000+0  00000+0 0  9999",
        "tle_line2": "2 37869  65.1816  78.8646 0026769 249.2065 114.7226  2.13101671110051"
      },
      "geometry": {
        "type": "Point",
        "coordinates": [
          77.25823844398002,
          -3.4656236733269674
        ]
      }
    },
    {
      "type": "Feature",
      "properties": {
        "norad_id": 37948,
        "name": "BEIDOU-2 IGSO-5 (C10)",
        "group": "gnss",
        "lat": -19.039588834937263,
        "lon": -104.37430564756465,
        "alt_km": 35953.03088939682,
        "timestamp": "2025-12-25T03:55:56.598880+00:00",
        "meta_object_name": "BEIDOU-2 IGSO-5 (C10)",
        "meta_object_id": "2011-073A",
        "meta_epoch": "2025-12-24T17:40:34.414752",
        "meta_mean_motion": 1.00288414,
        "meta_eccentricity": 0.0109717,
        "meta_inclination": 47.9979,
        "meta_ra_of_asc_node": 273.7118,
        "meta_arg_of_pericenter": 222.1575,
        "meta_mean_anomaly": 316.4289,
        "meta_ephemeris_type": 0,
        "meta_classification_type": "U",
        "meta_norad_cat_id": 37948,
        "meta_element_set_no": 999,
        "meta_rev_at_epoch": 5138,
        "meta_bstar": 0,
        "meta_mean_motion_dot": -1.39e-06,
        "meta_mean_motion_ddot": 0,
        "tle_line1": "1 37948U 11073A   25358.73650943 -.00000139  00000+0  00000+0 0  9995",
        "tle_line2": "2 37948  47.9979 273.7118 0109717 222.1575 316.4289  1.00288414 51384"
      },
      "geometry": {
        "type": "Point",
        "coordinates": [
          -104.37430564756465,
          -19.039588834937263
        ]
      }
    },
    {
      "type": "Feature",
      "properties": {
        "norad_id": 37951,
        "name": "LUCH 5A (SDCM/PRN 140)",
        "group": "gnss",
        "lat": -7.455345779652789,
        "lon": -40.25972778931272,
        "alt_km": 35774.19262873535,
        "timestamp": "2025-12-25T03:55:56.598893+00:00",
        "meta_object_name": "LUCH 5A (SDCM/PRN 140)",
        "meta_object_id": "2011-074B",
        "meta_epoch": "2025-12-24T07:19:32.884608",
        "meta_mean_motion": 1.00268999,
        "meta_eccentricity": 0.00052086,
        "meta_inclination": 8.3073,
        "meta_ra_of_asc_node": 76.4144,
        "meta_arg_of_pericenter": 191.6591,
        "meta_mean_anomaly": 101.925,
        "meta_ephemeris_type": 0,
        "meta_classification_type": "U",
        "meta_norad_cat_id": 37951,
        "meta_element_set_no": 999,
        "meta_rev_at_epoch": 5129,
        "meta_bstar": 0,
        "meta_mean_motion_dot": -3.2e-07,
        "meta_mean_motion_ddot": 0,
        "tle_line1": "1 37951U 11074B   25358.30524172 -.00000032  00000+0  00000+0 0  9999",
        "tle_line2": "2 37951   8.3073  76.4144 0005208 191.6591 101.9250  1.00268999 51290"
      },
      "geometry": {
        "type": "Point",
        "coordinates": [
          -40.25972778931272,
          -7.455345779652789
        ]
      }
    }
  ]
}